#aV2013  8 20  0  0  0.00000000     288 DD+AD WGS84 FIT  NGA
## 1754 172800.00000000   300.00000000 56524 0.0000000000000
+   31     1  2  3  4  5  6  7  8  9 10 11 12 13 14 15 16 17
+         18 19 20 21 22 23 24 25 26 27 28 29 31 32  0  0  0
+          0  0  0  0  0  0  0  0  0  0  0  0  0  0  0  0  0
+          0  0  0  0  0  0  0  0  0  0  0  0  0  0  0  0  0
+          0  0  0  0  0  0  0  0  0  0  0  0  0  0  0  0  0
++         2  2  2  2  2  2  2  2  2  2  2  2  2  2  2  2  2
++         2  2  2  2  2  2  2  2  2  2  2  2  2  2  2  0  0
++         0  0  0  0  0  0  0  0  0  0  0  0  0  0  0  0  0
++         0  0  0  0  0  0  0  0  0  0  0  0  0  0  0  0  0
++         0  0  0  0  0  0  0  0  0  0  0  0  0  0  0  0  0
%c cc cc ccc ccc cccc cccc cccc cccc ccccc ccccc ccccc ccccc
%c cc cc ccc ccc cccc cccc cccc cccc ccccc ccccc ccccc ccccc
%f  0.0000000  0.000000000  0.00000000000  0.000000000000000
%f  0.0000000  0.000000000  0.00000000000  0.000000000000000
%i    0    0    0    0      0      0      0      0         0
%i    0    0    0    0      0      0      0      0         0
/*      NGA, ST. LOUIS,MO.                                  
/*   EPHEMERIS COMPUTED FROM  1 DAYS OF DATA
/*   EPOCHA SMOOTHER  
/* CCCCCCCCCCCCCCCCCCCCCCCCCCCCCCCCCCCCCCCCCCCCCCCCCCCCCCCCC
*  2013  8 20 10 50  0.00000000                                                 
P  1 -22272.941168 -13872.886391  -4477.846915     65.256082                    
V  1   6241.662946    -30.989233 -31012.959382      0.045400                    
P  2   2378.530679  17306.006380  20356.818346    447.416118                    
V  2 -23521.817668  -9368.778740  10325.931793      0.017978                    
P  3    919.035927 -19542.510708 -18411.467551    248.566058                    
V  3  17627.054961 -14054.394584  16472.283025      0.051110                    
P  4 -11543.662791  11437.267128  20756.849862    304.960833                    
V  4 -24321.228896 -11901.439778  -6605.006968      0.102618                    
P  5   1616.301296  26405.596337   1104.709905   -399.579716                    
V  5  -3470.897878  -1131.085158  31522.667902     -0.001511                    
P  6   8354.059504 -20317.604241 -14591.704981     11.497510                    
V  6  16428.253092  -9634.042696  23094.701848      0.196306                    
P  7 -24345.847966  -4371.648174 -10045.464221    249.411083                    
V  7 -10585.006047  -7275.322297  28359.577356      0.042009                    
P  8 -19011.971909   2372.568570 -18542.638919      8.043630                    
V  8 -19717.708526 -12776.249720  17873.575155      0.001820                    
P  9 -18764.462745   5015.736045 -18706.811350    262.577017                    
V  9 -20074.077622 -10327.519747  17770.314646      0.026167                    
P 10  -9929.071832  18682.243048  15495.567157    -91.339263                    
V 10  -4150.421799 -20194.532158  21692.713651     -0.014320                    
P 11 -18711.375637 -13685.429430 -13640.358518   -411.972522                    
V 11  17026.368242  -1219.677872 -22647.431098     -0.035261                    
P 12  10500.425363  19965.707356  14140.561000    151.576626                    
V 12   -472.663432  17961.704572 -24725.454441      0.021897                    
P 13 -22886.546060   2653.508855  13208.287633     88.217802                    
V 13  13924.601955  -9722.862058  25686.200864     -0.037107                    
P 14  20647.834922 -15990.758141   4574.112228    217.585397                    
V 14   6044.581124   -729.017014 -31423.720062     -0.006692                    
P 15  11657.800478  10764.723119 -21348.663340   -133.084781                    
V 15 -21549.744795  16429.829964  -3224.879654     -0.017655                    
P 16   -200.951437 -26348.180125   1146.258964   -248.319188                    
V 16   2374.178079   1418.052576  32471.777019      0.006857                    
P 17 -21184.806313  15642.140516   2474.824682    -13.078800                    
V 17  -3959.592184   -811.638747 -31825.490961     -0.038429                    
P 18  15557.646017  -2579.962577 -20938.035199    269.727726                    
V 18   2852.575312  27584.365420  -1598.832636      0.019870                    
P 19  -6086.629519 -13994.225838 -21828.750250   -397.942562                    
V 19  24028.428129 -13318.228876   2266.420256     -0.028523                    
P 20 -14668.691878 -14512.660679  16588.860386    116.894276                    
V 20   -691.479132 -21594.990005 -19227.934002      0.024753                    
P 21  23695.979365   1277.591242 -11845.149303   -314.513362                    
V 21  13150.734973   9254.957979  25527.927961     -0.019020                    
P 22  11834.575711 -15838.161257 -17465.159312    180.867479                    
V 22   4349.218672  22461.546757 -17369.425211      0.017670                    
P 23 -17373.343372  -4998.161165  19675.464819     55.827958                    
V 23  19784.209180 -14812.949015  13364.911964     -0.034919                    
P 24  20076.318031  15404.659814  -8153.005389    -12.180694                    
V 24 -10495.153906  -1874.506799 -29373.237401     -0.006749                    
P 25  14944.709169   6235.003573  21012.498642    137.666293                    
V 25   1862.093923  26703.084282  -9126.795690      0.046128                    
P 26  -4308.583711  17780.150111 -19776.539747    150.921743                    
V 26 -21223.818639  10838.978511  15170.156372      0.175272                    
P 27   5560.709423 -19042.069339 -17666.445715    -26.247532                    
V 27  19266.066156 -11579.627830  18564.944757     -0.048030                    
P 28 -12551.083699  12082.047797 -19409.318916    285.702741                    
V 28  -1956.465859 -25879.441986 -14582.395709      0.031146                    
P 29  21620.451706  -1061.561937  15402.971255    463.726327                    
V 29 -15485.860087  11980.444886  22663.138170      0.031648                    
P 31  10207.841624 -11341.903189  21936.478918    323.904197                    
V 31  24414.004743  12348.471651  -4741.642690      0.009298                    
P 32  -8041.552461 -23081.357320  11137.463296   -553.883639                    
V 32   2297.492892 -13811.079392 -26725.426155      0.020065                    
EOF
